ORBCOMM FM37            
1 33064U 08031E   25352.56917315  .00001071  00000+0  16566-3 0  9997
2 33064  48.4383 186.5737 0004757  92.6926 301.7307 14.80622865941368
ORBCOMM FM40            
1 33065U 08031F   25352.88417068  .00001523  00000+0  21132-3 0  9990
2 33065  48.4405 165.8714 0005830 111.8599  45.5961 14.83132602941561
VESSELSAT 1             
1 37840U 11058C   25352.55572055  .00000334  00000+0  37386-4 0  9998
2 37840  19.9626  58.2302 0013819  55.0073 305.1627 14.11399830732385
ORBCOMM FM109           
1 40086U 14040A   25352.89253928  .00000353  00000+0  11155-3 0  9996
2 40086  47.0022 223.7412 0001209 113.2905 246.8108 14.58553458608022
ORBCOMM FM107           
1 40087U 14040B   25352.70601031  .00000419  00000+0  12548-3 0  9999
2 40087  47.0036 225.5089 0000872  21.3712 338.7210 14.58629871608071
ORBCOMM FM106           
1 40088U 14040C   25352.39385706  .00000808  00000+0  16438-3 0  9997
2 40088  47.0615  34.2122 0016929 206.4246 153.5783 14.70043710610578
ORBCOMM FM111           
1 40089U 14040D   25352.86575007  .00001677  00000+0  20461-3 0  9991
2 40089  46.9992 216.6726 0028534 356.6955   3.3750 14.87753695617718
ORBCOMM FM104           
1 40090U 14040E   25352.48676219  .00000422  00000+0  13051-3 0  9992
2 40090  47.0050 262.3857 0016740 326.0786  33.9027 14.57016685607497
